SL-16 R/B               
1 23405U 94077B   26203.59389853  .00000282  00000+0  16850-3 0  9998
2 23405  70.9822  68.6732 0004225 297.7675  62.3019 14.15576759635322
ARIANE 40+ R/B          
1 23561U 95021B   26203.93490947  .00000198  00000+0  77013-4 0  9991
2 23561  98.4394 273.4905 0007970  96.9099  81.1411 14.39850729638709
SL-16 R/B               
1 23705U 95058B   26203.53669774  .00000234  00000+0  14370-3 0  9990
2 23705  71.0203 257.1415 0014763 273.4683  86.4751 14.15513094586936
SL-16 R/B               
1 24298U 96051B   26203.86592566  .00000156  00000+0  11085-3 0  9995
2 24298  70.7639 249.1442 0018322 288.2141  71.6984 14.12459626540731
ORBVIEW 2 (SEASTAR)     
1 24883U 97037A   26203.70575248  .00000156  00000+0  70595-4 0  9993
2 24883  98.8722  11.7154 0002781  45.3657 314.7754 14.35569315527849
SL-16 R/B               
1 25400U 98043G   26203.58438933  .00000036  00000+0  33975-4 0  9990
2 25400  98.8383 158.0521 0009654 350.1187   9.9801 14.26073631458213
SL-16 R/B               
1 25407U 98045B   26203.90526356  .00000226  00000+0  13843-3 0  9994
2 25407  71.0097 257.2142 0007757 195.4201 164.6687 14.16206231446249
ISS (ZARYA)             
1 25544U 98067A   26203.79832414  .00009714  00000+0  18351-3 0  9992
2 25544  51.6313 123.8641 0006897 326.7338  33.3216 15.49102905577270
CZ-4B R/B               
1 25732U 99025C   26203.85796494  .00000012  00000+0  26809-4 0  9990
2 25732  98.6467 244.7956 0036276 317.2979 220.7686 14.18288600407325
OKEAN-O                 
1 25860U 99039A   26203.89803677  .00000446  00000+0  65052-4 0  9997
2 25860  97.9293 262.2823 0000928 102.1730 257.9586 14.80503550454398
SL-16 R/B               
1 25861U 99039B   26203.88670797  .00000413  00000+0  59000-4 0  9992
2 25861  97.9816 262.6441 0014941 173.2629 186.8787 14.81876371456880
DELTA 2 R/B             
1 25876U 99041E   26203.77818729  .00001275  00000+0  24363-3 0  9998
2 25876  51.7616 121.5949 0501479  27.1429 335.4797 14.12106570382118
HELIOS 1B               
1 25977U 99064A   26203.68291549  .00001014  00000+0  11664-3 0  9991
2 25977  98.1574 109.8453 0001592  46.1840 313.9507 14.88088429705334
TERRA                   
1 25994U 99068A   26203.91024720  .00000287  00000+0  67347-4 0  9996
2 25994  97.9435 252.0364 0003648 107.6896 356.9651 14.61127958414826
SL-16 R/B               
1 26070U 00006B   26203.88502667  .00000335  00000+0  19419-3 0  9993
2 26070  71.0013 173.5639 0017534 329.2966  30.7130 14.15840529367694
TITAN 4B R/B            
1 26474U 00047B   26203.88868262  .00002779  00000+0  17323-3 0  9998
2 26474  67.9892  20.0657 0045704 251.0312 108.5882 15.10361741413324
ENVISAT                 
1 27386U 02009A   26203.84101001  .00000052  00000+0  30670-4 0  9991
2 27386  98.3850 154.3679 0001289  82.0759 301.1519 14.39071967278618
IDEFIX & ARIANE 42P R/B 
1 27422U 02021B   26203.57740875  .00000143  00000+0  70946-4 0  9995
2 27422  98.5941 140.6780 0012332 145.3956 214.8032 14.31096074263315
AQUA                    
1 27424U 02022A   26203.91560834  .00000629  00000+0  13493-3 0  9993
2 27424  98.4303 173.9179 0001352 102.2720 334.9319 14.62136816288491
CZ-4B R/B               
1 27432U 02024C   26203.91302242  .00000010  00000+0  27857-4 0  9995
2 27432  98.8678 256.4973 0050062   0.1092 180.7101 14.14569097248353
MIDORI II (ADEOS-II)    
1 27597U 02056A   26203.27864614  .00000171  00000+0  84929-4 0  9998
2 27597  98.7899 162.8411 0001171  31.5357 328.5895 14.29365534229521
H-2A R/B                
1 27601U 02056E   26203.34022765  .00000206  00000+0  86197-4 0  9993
2 27601  98.3332 158.7371 0071218 119.9116  33.6546 14.33836799233407
CZ-4B R/B               
1 28059U 03049C   26203.71322716  .00000235  00000+0  65348-4 0  9991
2 28059  98.6915 203.9771 0048099 178.2317 181.9058 14.55119560206234
CZ-2C R/B               
1 28222U 04012C   26203.18529200  .00169717  00000+0  65145-3 0  9997
2 28222  97.7020 283.1270 0010443 170.1358 190.0119 15.86874711225438
SL-16 R/B               
1 28353U 04021B   26203.30508616 -.00000203  00000+0 -80882-4 0  9996
2 28353  71.0027 309.9883 0006053 218.3771 141.6922 14.14615590141875
CZ-4B R/B               
1 28415U 04035C   26203.56042782  .00007491  00000+0  24880-3 0  9994
2 28415  97.3357 236.2432 0029908 205.5477 154.4288 15.31062883200535
CZ-2C R/B               
1 28480U 04046B   26203.74078111  .00000095  00000+0  50005-4 0  9995
2 28480  98.1906 110.2928 0140461 115.2072 246.3749 14.27035025127761
ARIANE 5 R/B            
1 28499U 04049H   26203.49379531  .00000435  00000+0  54672-4 0  9992
2 28499  98.2748  17.1178 0082495 274.2501  84.9289 14.85484934165806
CZ-2D R/B               
1 28738U 05024B   26203.81251276  .00074485  00000+0  53230-3 0  9997
2 28738  97.3474 225.1237 0003766 175.2687 184.8613 15.73531661160932
ALOS (DAICHI)           
1 28931U 06002A   26203.82420302  .00000841  00000+0  14823-3 0  9998
2 28931  98.1342 159.2860 0001015 110.4947 249.6367 14.70113169 93334
