OBJECT_NAME,OBJECT_ID,EPOCH,MEAN_MOTION,ECCENTRICITY,INCLINATION,RA_OF_ASC_NODE,ARG_OF_PERICENTER,MEAN_ANOMALY,EPHEMERIS_TYPE,CLASSIFICATION_TYPE,NORAD_CAT_ID,ELEMENT_SET_NO,REV_AT_EPOCH,BSTAR,MEAN_MOTION_DOT,MEAN_MOTION_DDOT
SL-16 R/B,1994-077B,2026-07-22T14:15:12.832992,14.15576759,.00042253,70.9822,68.6732,297.7675,62.3019,0,U,23405,999,63532,.16850208E-3,.282E-5,0
ARIANE 40+ R/B,1995-021B,2026-07-22T22:26:16.178208,14.39850729,.00079702,98.4394,273.4905,96.9099,81.1411,0,U,23561,999,63870,.77013425E-4,.198E-5,0
SL-16 R/B,1995-058B,2026-07-22T12:52:50.684736,14.15513094,.00147633,71.0203,257.1415,273.4683,86.4751,0,U,23705,999,58693,.14369629E-3,.234E-5,0
SL-16 R/B,1996-051B,2026-07-22T20:46:55.977024,14.12459626,.0018322,70.7639,249.1442,288.2141,71.6984,0,U,24298,999,54073,.11084978E-3,.156E-5,0
ORBVIEW 2 (SEASTAR),1997-037A,2026-07-22T16:56:17.014272,14.35569315,.00027819,98.8722,11.7154,45.3657,314.7754,0,U,24883,999,52784,.70595165E-4,.156E-5,0
SL-16 R/B,1998-043G,2026-07-22T14:01:31.238112,14.26073631,.00096544,98.8383,158.0521,350.1187,9.9801,0,U,25400,999,45821,.33974587E-4,.36E-6,0
SL-16 R/B,1998-045B,2026-07-22T21:43:34.771584,14.16206231,.00077577,71.0097,257.2142,195.4201,164.6687,0,U,25407,999,44624,.13842782E-3,.226E-5,0
ISS (ZARYA),1998-067A,2026-07-22T19:09:35.205696,15.49102905,.00068971,51.6313,123.8641,326.7338,33.3216,0,U,25544,999,57727,.18351277E-3,.9714E-4,0
CZ-4B R/B,1999-025C,2026-07-22T20:35:28.170816,14.18288600,.00362767,98.6467,244.7956,317.2979,220.7686,0,U,25732,999,40732,.2680933E-4,.12E-6,0
OKEAN-O,1999-039A,2026-07-22T21:33:10.376928,14.80503550,.00009284,97.9293,262.2823,102.1730,257.9586,0,U,25860,999,45439,.65052402E-4,.446E-5,0
SL-16 R/B,1999-039B,2026-07-22T21:16:51.568608,14.81876371,.00149411,97.9816,262.6441,173.2629,186.8787,0,U,25861,999,45688,.5900015E-4,.413E-5,0
DELTA 2 R/B,1999-041E,2026-07-22T18:40:35.381856,14.12106570,.05014795,51.7616,121.5949,27.1429,335.4797,0,U,25876,999,38211,.24362873E-3,.1275E-4,0
HELIOS 1B,1999-064A,2026-07-22T16:23:23.898336,14.88088429,.00015928,98.1574,109.8453,46.1840,313.9507,0,U,25977,999,70533,.11664109E-3,.1014E-4,0
TERRA,1999-068A,2026-07-22T21:50:45.358080,14.61127958,.0003648,97.9435,252.0364,107.6896,356.9651,0,U,25994,999,41482,.67347403E-4,.287E-5,0
SL-16 R/B,2000-006B,2026-07-22T21:14:26.304288,14.15840529,.00175342,71.0013,173.5639,329.2966,30.7130,0,U,26070,999,36769,.19419425E-3,.335E-5,0
TITAN 4B R/B,2000-047B,2026-07-22T21:19:42.178368,15.10361741,.00457049,67.9892,20.0657,251.0312,108.5882,0,U,26474,999,41332,.17323012E-3,.2779E-4,0
ENVISAT,2002-009A,2026-07-22T20:11:03.264864,14.39071967,.00012895,98.3850,154.3679,82.0759,301.1519,0,U,27386,999,27861,.30669837E-4,.52E-6,0
IDEFIX & ARIANE 42P R/B,2002-021B,2026-07-22T13:51:28.116000,14.31096074,.00123321,98.5941,140.6780,145.3956,214.8032,0,U,27422,999,26331,.70945624E-4,.143E-5,0
AQUA,2002-022A,2026-07-22T21:58:28.560576,14.62136816,.00013529,98.4303,173.9179,102.2720,334.9319,0,U,27424,999,28849,.13493284E-3,.629E-5,0
CZ-4B R/B,2002-024C,2026-07-22T21:54:45.137088,14.14569097,.00500626,98.8678,256.4973,0.1092,180.7101,0,U,27432,999,24835,.27856998E-4,.1E-6,0
MIDORI II (ADEOS-II),2002-056A,2026-07-22T06:41:15.026496,14.29365534,.0001171,98.7899,162.8411,31.5357,328.5895,0,U,27597,999,22952,.84928649E-4,.171E-5,0
H-2A R/B,2002-056E,2026-07-22T08:09:55.668960,14.33836799,.00712186,98.3332,158.7371,119.9116,33.6546,0,U,27601,999,23340,.86197102E-4,.206E-5,0
CZ-4B R/B,2003-049C,2026-07-22T17:07:02.826624,14.55119560,.00480992,98.6915,203.9771,178.2317,181.9058,0,U,28059,999,20623,.65348099E-4,.235E-5,0
CZ-2C R/B,2004-012C,2026-07-22T04:26:49.228800,15.86874711,.00104433,97.7020,283.1270,170.1358,190.0119,0,U,28222,999,22543,.65144822E-3,.169717E-2,0
SL-16 R/B,2004-021B,2026-07-22T07:19:19.444224,14.14615590,.00060536,71.0027,309.9883,218.3771,141.6922,0,U,28353,999,14187,-.80882389E-4,-.203E-5,0
CZ-4B R/B,2004-035C,2026-07-22T13:27:00.963648,15.31062883,.00299081,97.3357,236.2432,205.5477,154.4288,0,U,28415,999,20053,.24879789E-3,.7491E-4,0
CZ-2C R/B,2004-046B,2026-07-22T17:46:43.487904,14.27035025,.01404616,98.1906,110.2928,115.2072,246.3749,0,U,28480,999,12776,.50005097E-4,.95E-6,0
ARIANE 5 R/B,2004-049H,2026-07-22T11:51:03.914784,14.85484934,.00824958,98.2748,17.1178,274.2501,84.9289,0,U,28499,999,16580,.54671875E-4,.435E-5,0
CZ-2D R/B,2005-024B,2026-07-22T19:30:01.102464,15.73531661,.00037661,97.3474,225.1237,175.2687,184.8613,0,U,28738,999,16093,.53229622E-3,.74485E-3,0
ALOS (DAICHI),2006-002A,2026-07-22T19:46:51.140928,14.70113169,.0001015,98.1342,159.2860,110.4947,249.6367,0,U,28931,999,9333,.1482274E-3,.841E-5,0
